{
    "links": {
        "self": "http://www.neowsapp.com/rest/v1/neo/54048878?api_key=iIulBulltgU6a56xZRHN4H3l9WmuAYTsLGpBGhQ2"
    },
    "id": "54048878",
    "neo_reference_id": "54048878",
    "name": "(2020 OV)",
    "designation": "2020 OV",
    "nasa_jpl_url": "http://ssd.jpl.nasa.gov/sbdb.cgi?sstr=54048878",
    "absolute_magnitude_h": 24.403,
    "estimated_diameter": {
        "kilometers": {
            "estimated_diameter_min": 0.034990889,
            "estimated_diameter_max": 0.0782420064
        },
        "meters": {
            "estimated_diameter_min": 34.9908890025,
            "estimated_diameter_max": 78.2420064028
        },
        "miles": {
            "estimated_diameter_min": 0.0217423237,
            "estimated_diameter_max": 0.0486173138
        },
        "feet": {
            "estimated_diameter_min": 114.7995082751,
            "estimated_diameter_max": 256.6995042866
        }
    },
    "is_potentially_hazardous_asteroid": false,
    "close_approach_data": [
        {
            "close_approach_date": "2010-07-16",
            "close_approach_date_full": "2010-Jul-16 08:28",
            "epoch_date_close_approach": 1279268880000,
            "relative_velocity": {
                "kilometers_per_second": "5.3982657064",
                "kilometers_per_hour": "19433.756543055",
                "miles_per_hour": "12075.3805586555"
            },
            "miss_distance": {
                "astronomical": "0.1999568445",
                "lunar": "77.7832125105",
                "kilometers": "29913118.029121215",
                "miles": "18587149.645714167"
            },
            "orbiting_body": "Earth"
        },
        {
            "close_approach_date": "2020-07-19",
            "close_approach_date_full": "2020-Jul-19 05:28",
            "epoch_date_close_approach": 1595136480000,
            "relative_velocity": {
                "kilometers_per_second": "4.3751571792",
                "kilometers_per_hour": "15750.5658451081",
                "miles_per_hour": "9786.7890941451"
            },
            "miss_distance": {
                "astronomical": "0.1734000728",
                "lunar": "67.4526283192",
                "kilometers": "25940281.548724936",
                "miles": "16118543.5275826768"
            },
            "orbiting_body": "Earth"
        },
        {
            "close_approach_date": "2030-07-22",
            "close_approach_date_full": "2030-Jul-22 14:04",
            "epoch_date_close_approach": 1910959440000,
            "relative_velocity": {
                "kilometers_per_second": "4.2453470758",
                "kilometers_per_hour": "15283.2494728129",
                "miles_per_hour": "9496.4168738153"
            },
            "miss_distance": {
                "astronomical": "0.1654034266",
                "lunar": "64.3419329474",
                "kilometers": "24744000.310061342",
                "miles": "15375208.8347648396"
            },
            "orbiting_body": "Earth"
        }
    ],
    "orbital_data": {
        "orbit_id": "5",
        "orbit_determination_date": "2020-08-22 06:35:08",
        "first_observation_date": "2020-07-18",
        "last_observation_date": "2020-08-12",
        "data_arc_in_days": 25,
        "observations_used": 23,
        "orbit_uncertainty": "7",
        "minimum_orbit_intersection": ".168424",
        "jupiter_tisserand_invariant": "3.481",
        "epoch_osculation": "2459000.5",
        "eccentricity": ".4741915241186578",
        "semi_major_axis": "2.233600587166762",
        "inclination": "3.323191797270173",
        "ascending_node_longitude": "236.9671009433925",
        "orbital_period": "1219.289122882794",
        "perihelion_distance": "1.174446120465826",
        "perihelion_argument": "63.59040967503564",
        "aphelion_distance": "3.292755053867698",
        "perihelion_time": "2459051.334586912017",
        "mean_anomaly": "344.9908844876285",
        "mean_motion": ".2952540076375352",
        "equinox": "J2000",
        "orbit_class": {
            "orbit_class_type": "AMO",
            "orbit_class_description": "Near-Earth asteroid orbits similar to that of 1221 Amor",
            "orbit_class_range": "1.017 AU < q (perihelion) < 1.3 AU"
        }
    },
    "is_sentry_object": false
}